STARLINK-31410          
1 59179U 24045B   26162.60969009  .00001295  00000+0  56612-4 0  9992
2 59179  43.0019 282.2740 0002294 273.0784  86.9805 15.27574747127525
STARLINK-31395          
1 59180U 24045C   26162.63153440 -.00001501  00000+0 -45051-4 0  9998
2 59180  42.9982 282.4352 0001488 279.5544  80.5139 15.27565263127527
STARLINK-31486          
1 59181U 24045D   26162.02682440  .00000005  00000+0  97195-5 0  9992
2 59181  42.9936 282.1767 0001971 285.1336  74.9298 15.27577773127479
STARLINK-31411          
1 59182U 24045E   26162.05446253 -.00000905  00000+0 -23319-4 0  9993
2 59182  43.0270 284.9843 0003823 266.5893  93.4521 15.27573329127442
STARLINK-31382          
1 59184U 24045G   26162.63780825 -.00001136  00000+0 -31750-4 0  9990
2 59184  42.9993 281.6222 0001917 275.8751  84.1882 15.27570019127537
STARLINK-31394          
1 59185U 24045H   26162.00081074  .00000804  00000+0  38748-4 0  9995
2 59185  43.0047 275.0774 0001081 247.7659 112.3079 15.27582413127551
STARLINK-31403          
1 59186U 24045J   26161.97652470  .00000520  00000+0  28429-4 0  9995
2 59186  42.9993 264.2811 0001486 284.9622  75.1065 15.27580660127614
STARLINK-31514          
1 59187U 24045K   26161.62502681 -.00000073  00000+0  68832-5 0  9993
2 59187  43.0030 287.7854 0001615 271.9205  88.1461 15.27579768127377
STARLINK-31478          
1 59188U 24045L   26162.59554271 -.00002237  00000+0 -71822-4 0  9990
2 59188  43.0021 282.1602 0001467 265.5200  94.5484 15.27570459127528
STARLINK-31498          
1 59189U 24045M   26162.62124383  .00000320  00000+0  21165-4 0  9996
2 59189  43.0068 282.3557 0001103 269.8589  90.2137 15.27577516127524
STARLINK-31563          
1 59190U 24045N   26162.06089248  .00000559  00000+0  29832-4 0  9999
2 59190  42.9989 285.0319 0000896 296.1426  63.9333 15.27580656127448
STARLINK-31551          
1 59191U 24045P   26162.33335648  .00027977  00000+0  10232-2 0  9993
2 59191  43.0029 279.9148 0001376 261.6172 219.5549 15.27553565  5876
STARLINK-31536          
1 59192U 24045Q   26162.66668981  .00018246  00000+0  67118-3 0  9994
2 59192  43.0026 281.8072 0001430 272.6962  97.8519 15.27567047  5876
STARLINK-31548          
1 59193U 24045R   26162.62767255  .00000055  00000+0  11514-4 0  9994
2 59193  43.0025 282.4038 0001391 277.2201  82.8492 15.27574390127528
STARLINK-31542          
1 59194U 24045S   26162.63523311  .00000339  00000+0  21852-4 0  9990
2 59194  42.9971 281.5957 0001577 296.6366  63.4324 15.27576592127536
STARLINK-31554          
1 59195U 24045T   26162.61354333 -.00001082  00000+0 -29820-4 0  9996
2 59195  43.0021 282.3016 0001310 273.9436  86.1266 15.27569052127520
STARLINK-31558          
1 59196U 24045U   26162.63909164 -.00001234  00000+0 -35365-4 0  9997
2 59196  42.9823 281.6250 0001335 247.6836 112.3873 15.27568958127542
STARLINK-31275          
1 59197U 24045V   26162.02891783  .00018084  00000+0  66479-3 0  9996
2 59197  43.0018 285.6565 0000255 220.1494 139.9339 15.27594169127433
STARLINK-31590          
1 59198U 24045W   26162.62511436 -.00003790  00000+0 -12837-3 0  9996
2 59198  42.9952 282.3798 0001237 275.3876  84.6834 15.27556434127527
STARLINK-31567          
1 59199U 24045X   26162.06473280  .00000617  00000+0  31939-4 0  9997
2 59199  43.0027 285.0610 0001307 280.4422  79.6282 15.27584611127448
STARLINK-31503          
1 59200U 24045Y   26162.06860752  .00005416  00000+0  20618-3 0  9997
2 59200  43.0054 285.0859 0001302  90.6863 269.4138 15.27584150127448
STARLINK-31603          
1 59201U 24046A   26162.46886412  .00000470  00000+0  27990-4 0  9990
2 59201  53.1615  80.0293 0001408  90.8014 269.3148 15.30201205127403
STARLINK-31602          
1 59202U 24046B   26162.04454078 -.00006318  00000+0 -17634-3 0  9996
2 59202  53.1604  80.2328 0001034  65.9342 294.1769 15.34342773127365
STARLINK-31577          
1 59203U 24046C   26162.66668981  .00077272  00000+0  22781-2 0  9998
2 59203  53.1584  77.0438 0001174  96.6641 241.7658 15.34353107  5832
STARLINK-31522          
1 59204U 24046D   26162.46673092  .00000598  00000+0  32292-4 0  9993
2 59204  53.1624  80.0154 0001315  97.4930 262.6221 15.30211225127400
STARLINK-31586          
1 59205U 24046E   26162.50673332  .00000361  00000+0  24332-4 0  9990
2 59205  53.1604  79.5487 0001806  76.0979 284.0223 15.30194317127415
STARLINK-31247          
1 59206U 24046F   26162.06324376  .00002118  00000+0  83598-4 0  9994
2 59206  53.1592  81.7544 0001203  90.1619 269.9520 15.30209553127343
STARLINK-31591          
1 59207U 24046G   26162.50255672 -.00002015  00000+0 -48538-4 0  9999
2 59207  53.1612  78.1118 0001227  95.7779 264.3364 15.34391670127439
STARLINK-31576          
1 59208U 24046H   26162.05081175  .00004754  00000+0  15175-3 0  9995
2 59208  53.1598  80.2689 0001593 107.5658 252.5519 15.34401380127367
STARLINK-31601          
1 59209U 24046J   26162.48152212 -.00000186  00000+0  56513-5 0  9993
2 59209  53.1622  77.9754 0001520  98.2808 261.8367 15.34386809127435
