OBJECT_NAME,OBJECT_ID,EPOCH,MEAN_MOTION,ECCENTRICITY,INCLINATION,RA_OF_ASC_NODE,ARG_OF_PERICENTER,MEAN_ANOMALY,EPHEMERIS_TYPE,CLASSIFICATION_TYPE,NORAD_CAT_ID,ELEMENT_SET_NO,REV_AT_EPOCH,BSTAR,MEAN_MOTION_DOT,MEAN_MOTION_DDOT
STARLINK-31410,2024-045B,2026-06-11T14:37:57.223776,15.27574747,.00022945,43.0019,282.2740,273.0784,86.9805,0,U,59179,999,12752,.56611545E-4,.1295E-4,0
STARLINK-31395,2024-045C,2026-06-11T15:09:24.572160,15.27565263,.0001488,42.9982,282.4352,279.5544,80.5139,0,U,59180,999,12752,-.45051215E-4,-.1501E-4,0
STARLINK-31486,2024-045D,2026-06-11T00:38:37.628160,15.27577773,.00019712,42.9936,282.1767,285.1336,74.9298,0,U,59181,999,12747,.9719469E-5,.5E-7,0
STARLINK-31411,2024-045E,2026-06-11T01:18:25.562592,15.27573329,.00038239,43.0270,284.9843,266.5893,93.4521,0,U,59182,999,12744,-.2331924E-4,-.905E-5,0
STARLINK-31382,2024-045G,2026-06-11T15:18:26.632800,15.27570019,.00019178,42.9993,281.6222,275.8751,84.1882,0,U,59184,999,12753,-.31750168E-4,-.1136E-4,0
STARLINK-31394,2024-045H,2026-06-11T00:01:10.047936,15.27582413,.00010811,43.0047,275.0774,247.7659,112.3079,0,U,59185,999,12755,.38747665E-4,.804E-5,0
STARLINK-31403,2024-045J,2026-06-10T23:26:11.734080,15.27580660,.00014863,42.9993,264.2811,284.9622,75.1065,0,U,59186,999,12761,.28428585E-4,.52E-5,0
STARLINK-31514,2024-045K,2026-06-10T15:00:02.316384,15.27579768,.00016156,43.0030,287.7854,271.9205,88.1461,0,U,59187,999,12737,.6883214E-5,-.73E-6,0
STARLINK-31478,2024-045L,2026-06-11T14:17:34.890144,15.27570459,.00014674,43.0021,282.1602,265.5200,94.5484,0,U,59188,999,12752,-.71821691E-4,-.2237E-4,0
STARLINK-31498,2024-045M,2026-06-11T14:54:35.466912,15.27577516,.00011037,43.0068,282.3557,269.8589,90.2137,0,U,59189,999,12752,.21164817E-4,.32E-5,0
STARLINK-31563,2024-045N,2026-06-11T01:27:41.110272,15.27580656,.00008962,42.9989,285.0319,296.1426,63.9333,0,U,59190,999,12744,.29832115E-4,.559E-5,0
STARLINK-31551,2024-045P,2026-06-11T08:00:01.999872,15.27553565,.00013765,43.0029,279.9148,261.6172,219.5549,0,U,59191,999,587,.10231647E-2,.27977E-3,0
STARLINK-31536,2024-045Q,2026-06-11T16:00:01.999584,15.27567047,.00014305,43.0026,281.8072,272.6962,97.8519,0,U,59192,999,587,.67117879E-3,.18246E-3,0
STARLINK-31548,2024-045R,2026-06-11T15:03:50.908320,15.27574390,.00013914,43.0025,282.4038,277.2201,82.8492,0,U,59193,999,12752,.11514261E-4,.55E-6,0
STARLINK-31542,2024-045S,2026-06-11T15:14:44.140704,15.27576592,.00015771,42.9971,281.5957,296.6366,63.4324,0,U,59194,999,12753,.21852327E-4,.339E-5,0
STARLINK-31554,2024-045T,2026-06-11T14:43:30.143712,15.27569052,.00013106,43.0021,282.3016,273.9436,86.1266,0,U,59195,999,12752,-.29820191E-4,-.1082E-4,0
STARLINK-31558,2024-045U,2026-06-11T15:20:17.517696,15.27568958,.00013358,42.9823,281.6250,247.6836,112.3873,0,U,59196,999,12754,-.35365495E-4,-.1234E-4,0
STARLINK-31275,2024-045V,2026-06-11T00:41:38.500512,15.27594169,.00002555,43.0018,285.6565,220.1494,139.9339,0,U,59197,999,12743,.66478905E-3,.18084E-3,0
STARLINK-31590,2024-045W,2026-06-11T15:00:09.880704,15.27556434,.00012378,42.9952,282.3798,275.3876,84.6834,0,U,59198,999,12752,-.1283675E-3,-.379E-4,0
STARLINK-31567,2024-045X,2026-06-11T01:33:12.913920,15.27584611,.00013078,43.0027,285.0610,280.4422,79.6282,0,U,59199,999,12744,.31939345E-4,.617E-5,0
STARLINK-31503,2024-045Y,2026-06-11T01:38:47.689728,15.27584150,.00013023,43.0054,285.0859,90.6863,269.4138,0,U,59200,999,12744,.20617849E-3,.5416E-4,0
STARLINK-31603,2024-046A,2026-06-11T11:15:09.859968,15.30201205,.00014088,53.1615,80.0293,90.8014,269.3148,0,U,59201,999,12740,.2799037E-4,.47E-5,0
STARLINK-31602,2024-046B,2026-06-11T01:04:08.323392,15.34342773,.00010346,53.1604,80.2328,65.9342,294.1769,0,U,59202,999,12736,-.17634056E-3,-.6318E-4,0
STARLINK-31577,2024-046C,2026-06-11T16:00:01.999584,15.34353107,.00011745,53.1584,77.0438,96.6641,241.7658,0,U,59203,999,583,.22780761E-2,.77272E-3,0
STARLINK-31522,2024-046D,2026-06-11T11:12:05.551488,15.30211225,.00013157,53.1624,80.0154,97.4930,262.6221,0,U,59204,999,12740,.32291815E-4,.598E-5,0
STARLINK-31586,2024-046E,2026-06-11T12:09:41.758848,15.30194317,.0001806,53.1604,79.5487,76.0979,284.0223,0,U,59205,999,12741,.24332264E-4,.361E-5,0
STARLINK-31247,2024-046F,2026-06-11T01:31:04.260864,15.30209553,.0001203,53.1592,81.7544,90.1619,269.9520,0,U,59206,999,12734,.83597878E-4,.2118E-4,0
STARLINK-31591,2024-046G,2026-06-11T12:03:40.900608,15.34391670,.00012277,53.1612,78.1118,95.7779,264.3364,0,U,59207,999,12743,-.4853817E-4,-.2015E-4,0
STARLINK-31576,2024-046H,2026-06-11T01:13:10.135200,15.34401380,.00015938,53.1598,80.2689,107.5658,252.5519,0,U,59208,999,12736,.15175449E-3,.4754E-4,0
STARLINK-31601,2024-046J,2026-06-11T11:33:23.511168,15.34386809,.00015209,53.1622,77.9754,98.2808,261.8367,0,U,59209,999,12743,.5651263E-5,-.186E-5,0
